SL-16 R/B               
1 23405U 94077B   26155.11858769 -.00000259  00000+0 -10760-3 0  9999
2 23405  70.9811 170.6569 0002439 336.1230  23.9779 14.15575309628465
ARIANE 40+ R/B          
1 23561U 95021B   26155.12800720  .00000336  00000+0  12088-3 0  9996
2 23561  98.4413 225.3911 0005728 236.6808 180.9818 14.39826060631684
SL-16 R/B               
1 23705U 95058B   26154.98841456 -.00000248  00000+0 -10228-3 0  9998
2 23705  71.0220 359.0713 0013189 338.2018  21.8542 14.15506180580068
SL-16 R/B               
1 24298U 96051B   26154.64643126  .00000142  00000+0  10371-3 0  9997
2 24298  70.7634 353.3077 0014292 357.7855   2.3198 14.12441490533789
ORBVIEW 2 (SEASTAR)     
1 24883U 97037A   26155.05588970  .00000309  00000+0  12358-3 0  9995
2 24883  98.8678 321.7120 0002742 143.6285 216.5086 14.35546462520862
SL-16 R/B               
1 25400U 98043G   26154.47074504  .00000058  00000+0  43381-4 0  9999
2 25400  98.8359 108.5125 0010765 122.3726 237.8497 14.26066141451213
SL-16 R/B               
1 25407U 98045B   26155.02764519  .00000244  00000+0  14737-3 0  9991
2 25407  71.0121   0.0058 0009541 256.9408 103.0651 14.16203190439322
ISS (ZARYA)             
1 25544U 98067A   26154.96745432  .00008451  00000+0  15807-3 0  9999
2 25544  51.6330   5.5404 0007081 130.0270 230.1341 15.49590346569704
CZ-4B R/B               
1 25732U 99025C   26155.08541133  .00000080  00000+0  59207-4 0  9992
2 25732  98.6489 197.2530 0038260  96.2684 317.9376 14.18281192400418
OKEAN-O                 
1 25860U 99039A   26155.10035439  .00000775  00000+0  10819-3 0  9995
2 25860  97.9320 214.0478 0001895  82.7147 277.4280 14.80450948447177
SL-16 R/B               
1 25861U 99039B   26155.13432665  .00000656  00000+0  89723-4 0  9990
2 25861  97.9842 214.0338 0014266 342.2566  17.8147 14.81832122449660
DELTA 2 R/B             
1 25876U 99041E   26154.65647748  .00000694  00000+0  14945-3 0  9990
2 25876  51.7658 317.8456 0501108 242.0234 112.9132 14.11990288375173
HELIOS 1B               
1 25977U 99064A   26154.66223658  .00001617  00000+0  18277-3 0  9996
2 25977  98.1625  59.4101 0002252 109.7874 250.3585 14.87968134698046
TERRA                   
1 25994U 99068A   26155.28503641  .00000491  00000+0  10892-3 0  9995
2 25994  97.9462 205.3422 0000810 263.3577 185.5303 14.61092716407720
SL-16 R/B               
1 26070U 00006B   26154.64155698 -.00000014  00000+0  17310-4 0  9994
2 26070  71.0033 277.1057 0014836  45.0794 315.1530 14.15837347360720
TITAN 4B R/B            
1 26474U 00047B   26155.21129206  .00003589  00000+0  22273-3 0  9999
2 26474  67.9869 157.0953 0045382 300.1974  59.4685 15.10118859405977
ENVISAT                 
1 27386U 02009A   26154.49205816  .00000112  00000+0  49998-4 0  9996
2 27386  98.3829 106.1165 0001331  92.0435  19.9609 14.39061394271518
IDEFIX & ARIANE 42P R/B 
1 27422U 02021B   26154.42578324  .00000267  00000+0  11809-3 0  9991
2 27422  98.5941  92.0582 0010752 298.8139  61.1964 14.31075278256284
AQUA                    
1 27424U 02022A   26155.26535920  .00000997  00000+0  20809-3 0  9992
2 27424  98.4271 124.2907 0001608  56.5787  47.4575 14.62137848281388
CZ-4B R/B               
1 27432U 02024C   26155.08319083  .00000058  00000+0  52513-4 0  9999
2 27432  98.8704 207.9875 0050923 136.7538 279.9487 14.14562256241454
MIDORI II (ADEOS-II)    
1 27597U 02056A   26154.48772052  .00000317  00000+0  14226-3 0  9994
2 27597  98.7872 113.6317 0002177  96.1451 263.9978 14.29341638222559
H-2A R/B                
1 27601U 02056E   26154.48287659  .00000243  00000+0  10004-3 0  9992
2 27601  98.3306 111.6572 0068835 266.0531 202.3504 14.33815770226402
CZ-4B R/B               
1 28059U 03049C   26154.61600001  .00000368  00000+0  96037-4 0  9997
2 28059  98.6894 152.9224 0047503 330.8112  29.0430 14.55090366199097
CZ-2C R/B               
1 28222U 04012C   26154.20614582  .00096678  00000+0  61038-3 0  9995
2 28222  97.7100 228.2705 0008228 345.2948  14.8076 15.76297464217695
SL-16 R/B               
1 28353U 04021B   26155.07958235 -.00000089  00000+0 -21684-4 0  9999
2 28353  71.0025  51.1974 0007451 269.4456  90.5812 14.14613252135056
CZ-4B R/B               
1 28415U 04035C   26155.05684586  .00009416  00000+0  31779-3 0  9992
2 28415  97.3368 188.2801 0031513  25.1070 335.1695 15.30421930193119
CZ-2C R/B               
1 28480U 04046B   26154.65897453  .00000124  00000+0  61753-4 0  9993
2 28480  98.1954  64.2840 0138083 260.5740  97.9811 14.27023466120767
ARIANE 5 R/B            
1 28499U 04049H   26155.06230735  .00001017  00000+0  11757-3 0  9996
2 28499  98.2713 326.8091 0085158  71.4879 289.5565 14.85429493158616
CZ-2D R/B               
1 28738U 05024B   26155.01607343  .00056235  00000+0  50506-3 0  9991
2 28738  97.3490 173.8010 0005457  82.9591 277.2290 15.68086346153271
ALOS (DAICHI)           
1 28931U 06002A   26154.47725399  .00001292  00000+0  22359-3 0  9992
2 28931  98.1317 110.0882 0001949  66.5331 293.6079 14.70020825 86088
